[{"OBJECT_NAME":"STARLINK-34225","OBJECT_ID":"2025-129C","EPOCH":"2026-03-09T10:21:52.915680","MEAN_MOTION":14.98334097,"ECCENTRICITY":0.00035263,"INCLINATION":70.0011,"RA_OF_ASC_NODE":75.3047,"ARG_OF_PERICENTER":266.6625,"MEAN_ANOMALY":93.413,"EPHEMERIS_TYPE":0,"CLASSIFICATION_TYPE":"U","NORAD_CAT_ID":64414,"ELEMENT_SET_NO":999,"REV_AT_EPOCH":4124,"BSTAR":0.00014789839,"MEAN_MOTION_DOT":1.672e-5,"MEAN_MOTION_DDOT":0},{"OBJECT_NAME":"CZ-2C R\/B","OBJECT_ID":"2021-055C","EPOCH":"2026-03-09T16:47:26.920896","MEAN_MOTION":14.88109627,"ECCENTRICITY":0.00672888,"INCLINATION":35.0695,"RA_OF_ASC_NODE":218.1603,"ARG_OF_PERICENTER":136.1858,"MEAN_ANOMALY":224.4211,"EPHEMERIS_TYPE":0,"CLASSIFICATION_TYPE":"U","NORAD_CAT_ID":48862,"ELEMENT_SET_NO":999,"REV_AT_EPOCH":25639,"BSTAR":0.00028201568,"MEAN_MOTION_DOT":2.727e-5,"MEAN_MOTION_DDOT":0}]
